{"type": "FeatureCollection", "features": [ {"type": "Feature", "properties": {"norad_id": 39019, "name": "PLEIADES 1B", "group": "resource", "lat": 46.46265145961663, "lon": -98.08952750095727, "alt_km": 693.1835563138384, "timestamp": "2025-12-26T18:39:31.929227+00:00", "meta": {"OBJECT_NAME": "PLEIADES 1B", "OBJECT_ID": "2012-068A", "EPOCH": "2025-12-26T14:45:32.925888", "MEAN_MOTION": 14.58566464, "ECCENTRICITY": 0.00011581, "INCLINATION": 98.1773, "RA_OF_ASC_NODE": 73.0467, "ARG_OF_PERICENTER": 85.4977, "MEAN_ANOMALY": 274.6355, "EPHEMERIS_TYPE": 0, "CLASSIFICATION_TYPE": "U", "NORAD_CAT_ID": 39019, "ELEMENT_SET_NO": 999, "REV_AT_EPOCH": 69569, "BSTAR": 0.00016421584, "MEAN_MOTION_DOT": 7.18e-06, "MEAN_MOTION_DDOT": 0}, "tle": {"line1": "1 39019U 12068A   25360.61496442  .00000718  00000+0  16422-3 0  9994", "line2": "2 39019  98.1773  73.0467 0001158  85.4977 274.6355 14.58566464695697"}}, "geometry": {"type": "Point", "coordinates": [-98.08952750095727, 46.46265145961663]}}, {"type": "Feature", "properties": {"norad_id": 39030, "name": "GOKTURK 2", "group": "resource", "lat": 66.28310737344246, "lon": 39.64933601755406, "alt_km": 636.6686924981286, "timestamp": "2025-12-26T18:39:31.929238+00:00", "meta": {"OBJECT_NAME": "GOKTURK 2", "OBJECT_ID": "2012-073A", "EPOCH": "2025-12-26T14:53:43.657152", "MEAN_MOTION": 14.75310797, "ECCENTRICITY": 0.00014928, "INCLINATION": 97.6886, "RA_OF_ASC_NODE": 201.5914, "ARG_OF_PERICENTER": 107.2031, "MEAN_ANOMALY": 252.9342, "EPHEMERIS_TYPE": 0, "CLASSIFICATION_TYPE": "U", "NORAD_CAT_ID": 39030, "ELEMENT_SET_NO": 999, "REV_AT_EPOCH": 69906, "BSTAR": 0.00012656144, "MEAN_MOTION_DOT": 8.1e-06, "MEAN_MOTION_DDOT": 0}, "tle": {"line1": "1 39030U 12073A   25360.62064418  .00000810  00000+0  12656-3 0  9996", "line2": "2 39030  97.6886 201.5914 0001492 107.2031 252.9342 14.75310797699064"}}, "geometry": {"type": "Point", "coordinates": [39.64933601755406, 66.28310737344246]}}, {"type": "Feature", "properties": {"norad_id": 39084, "name": "LANDSAT 8", "group": "resource", "lat": -49.329987775181166, "lon": -121.02531193260292, "alt_km": 709.912651887973, "timestamp": "2025-12-26T18:39:31.929248+00:00", "meta": {"OBJECT_NAME": "LANDSAT 8", "OBJECT_ID": "2013-008A", "EPOCH": "2025-12-26T14:18:38.583360", "MEAN_MOTION": 14.57116314, "ECCENTRICITY": 0.00010531, "INCLINATION": 98.2055, "RA_OF_ASC_NODE": 68.4641, "ARG_OF_PERICENTER": 93.9516, "MEAN_ANOMALY": 266.1803, "EPHEMERIS_TYPE": 0, "CLASSIFICATION_TYPE": "U", "NORAD_CAT_ID": 39084, "ELEMENT_SET_NO": 999, "REV_AT_EPOCH": 67276, "BSTAR": 0.00010852248, "MEAN_MOTION_DOT": 4.44e-06, "MEAN_MOTION_DDOT": 0}, "tle": {"line1": "1 39084U 13008A   25360.59627990  .00000444  00000+0  10852-3 0  9999", "line2": "2 39084  98.2055  68.4641 0001053  93.9516 266.1803 14.57116314672763"}}, "geometry": {"type": "Point", "coordinates": [-121.02531193260292, -49.329987775181166]}}, {"type": "Feature", "properties": {"norad_id": 39086, "name": "SARAL", "group": "resource", "lat": 65.44041914854488, "lon": 165.30319869494477, "alt_km": 774.0655029415229, "timestamp": "2025-12-26T18:39:31.929258+00:00", "meta": {"OBJECT_NAME": "SARAL", "OBJECT_ID": "2013-009A", "EPOCH": "2025-12-26T14:59:44.948256", "MEAN_MOTION": 14.32761864, "ECCENTRICITY": 0.00029527, "INCLINATION": 98.5504, "RA_OF_ASC_NODE": 184.374, "ARG_OF_PERICENTER": 82.5402, "MEAN_ANOMALY": 277.6117, "EPHEMERIS_TYPE": 0, "CLASSIFICATION_TYPE": "U", "NORAD_CAT_ID": 39086, "ELEMENT_SET_NO": 999, "REV_AT_EPOCH": 67089, "BSTAR": 7.0169332e-05, "MEAN_MOTION_DOT": 1.47e-06, "MEAN_MOTION_DDOT": 0}, "tle": {"line1": "1 39086U 13009A   25360.62482579  .00000147  00000+0  70169-4 0  9996", "line2": "2 39086  98.5504 184.3740 0002952  82.5402 277.6117 14.32761864670898"}}, "geometry": {"type": "Point", "coordinates": [165.30319869494477, 65.44041914854488]}}, {"type": "Feature", "properties": {"norad_id": 39150, "name": "GAOFEN-1", "group": "resource", "lat": -70.6011496663875, "lon": -132.1331892863153, "alt_km": 659.1381530216822, "timestamp": "2025-12-26T18:39:31.929268+00:00", "meta": {"OBJECT_NAME": "GAOFEN-1", "OBJECT_ID": "2013-018A", "EPOCH": "2025-12-26T14:16:06.612672", "MEAN_MOTION": 14.76505295, "ECCENTRICITY": 0.00185636, "INCLINATION": 97.9306, "RA_OF_ASC_NODE": 71.0075, "ARG_OF_PERICENTER": 101.0382, "MEAN_ANOMALY": 259.2917, "EPHEMERIS_TYPE": 0, "CLASSIFICATION_TYPE": "U", "NORAD_CAT_ID": 39150, "ELEMENT_SET_NO": 999, "REV_AT_EPOCH": 68277, "BSTAR": 0.00017650276, "MEAN_MOTION_DOT": 1.182e-05, "MEAN_MOTION_DDOT": 0}, "tle": {"line1": "1 39150U 13018A   25360.59452098  .00001182  00000+0  17650-3 0  9992", "line2": "2 39150  97.9306  71.0075 0018563 101.0382 259.2917 14.76505295682771"}}, "geometry": {"type": "Point", "coordinates": [-132.1331892863153, -70.6011496663875]}}, {"type": "Feature", "properties": {"norad_id": 39160, "name": "VNREDSAT 1", "group": "resource", "lat": 82.05948336016735, "lon": -35.029953192273545, "alt_km": 668.9748290228144, "timestamp": "2025-12-26T18:39:31.929278+00:00", "meta": {"OBJECT_NAME": "VNREDSAT 1", "OBJECT_ID": "2013-021B", "EPOCH": "2025-12-26T14:58:14.724192", "MEAN_MOTION": 14.64944333, "ECCENTRICITY": 0.00011645, "INCLINATION": 97.9349, "RA_OF_ASC_NODE": 55.4107, "ARG_OF_PERICENTER": 81.6153, "MEAN_ANOMALY": 278.5182, "EPHEMERIS_TYPE": 0, "CLASSIFICATION_TYPE": "U", "NORAD_CAT_ID": 39160, "ELEMENT_SET_NO": 999, "REV_AT_EPOCH": 67502, "BSTAR": 0.00020219573, "MEAN_MOTION_DOT": 1.036e-05, "MEAN_MOTION_DDOT": 0}, "tle": {"line1": "1 39160U 13021B   25360.62378153  .00001036  00000+0  20220-3 0  9995", "line2": "2 39160  97.9349  55.4107 0001164  81.6153 278.5182 14.64944333675024"}}, "geometry": {"type": "Point", "coordinates": [-35.029953192273545, 82.05948336016735]}}, {"type": "Feature", "properties": {"norad_id": 39227, "name": "ARIRANG-5 (KOMPSAT-5)", "group": "resource", "lat": 5.373502153465708, "lon": -175.83931263618558, "alt_km": 553.5799864370865, "timestamp": "2025-12-26T18:39:31.929288+00:00", "meta": {"OBJECT_NAME": "ARIRANG-5 (KOMPSAT-5)", "OBJECT_ID": "2013-042A", "EPOCH": "2025-12-26T15:26:32.654400", "MEAN_MOTION": 15.04491454, "ECCENTRICITY": 0.00029398, "INCLINATION": 97.6166, "RA_OF_ASC_NODE": 184.7498, "ARG_OF_PERICENTER": 32.7441, "MEAN_ANOMALY": 327.3967, "EPHEMERIS_TYPE": 0, "CLASSIFICATION_TYPE": "U", "NORAD_CAT_ID": 39227, "ELEMENT_SET_NO": 999, "REV_AT_EPOCH": 67791, "BSTAR": 0.00019118068, "MEAN_MOTION_DOT": 2.615e-05, "MEAN_MOTION_DDOT": 0}, "tle": {"line1": "1 39227U 13042A   25360.64343350  .00002615  00000+0  19118-3 0  9993", "line2": "2 39227  97.6166 184.7498 0002939  32.7441 327.3967 15.04491454677919"}}, "geometry": {"type": "Point", "coordinates": [-175.83931263618558, 5.373502153465708]}}, {"type": "Feature", "properties": {"norad_id": 39418, "name": "SKYSAT-A", "group": "resource", "lat": 18.24616935927946, "lon": 48.09991804818198, "alt_km": 546.1538867627014, "timestamp": "2025-12-26T18:39:31.929298+00:00", "meta": {"OBJECT_NAME": "SKYSAT-A", "OBJECT_ID": "2013-066C", "EPOCH": "2025-12-26T13:48:41.273280", "MEAN_MOTION": 15.11702168, "ECCENTRICITY": 0.00217913, "INCLINATION": 97.4086, "RA_OF_ASC_NODE": 50.3627, "ARG_OF_PERICENTER": 187.1563, "MEAN_ANOMALY": 172.9359, "EPHEMERIS_TYPE": 0, "CLASSIFICATION_TYPE": "U", "NORAD_CAT_ID": 39418, "ELEMENT_SET_NO": 999, "REV_AT_EPOCH": 66239, "BSTAR": 0.00022806876, "MEAN_MOTION_DOT": 3.841e-05, "MEAN_MOTION_DDOT": 0}, "tle": {"line1": "1 39418U 13066C   25360.57547770  .00003841  00000+0  22807-3 0  9996", "line2": "2 39418  97.4086  50.3627 0021791 187.1563 172.9359 15.11702168662399"}}, "geometry": {"type": "Point", "coordinates": [48.09991804818198, 18.24616935927946]}}, {"type": "Feature", "properties": {"norad_id": 39419, "name": "DUBAISAT-2", "group": "resource", "lat": -2.3166395063516045, "lon": -8.943576636206231, "alt_km": 544.29252158685, "timestamp": "2025-12-26T18:39:31.929309+00:00", "meta": {"OBJECT_NAME": "DUBAISAT-2", "OBJECT_ID": "2013-066D", "EPOCH": "2025-12-26T13:53:35.516256", "MEAN_MOTION": 15.08489554, "ECCENTRICITY": 0.00097448, "INCLINATION": 97.4468, "RA_OF_ASC_NODE": 350.5607, "ARG_OF_PERICENTER": 267.4495, "MEAN_ANOMALY": 92.5618, "EPHEMERIS_TYPE": 0, "CLASSIFICATION_TYPE": "U", "NORAD_CAT_ID": 39419, "ELEMENT_SET_NO": 999, "REV_AT_EPOCH": 66035, "BSTAR": 0.00033138597, "MEAN_MOTION_DOT": 5.111e-05, "MEAN_MOTION_DDOT": 0}, "tle": {"line1": "1 39419U 13066D   25360.57888329  .00005111  00000+0  33139-3 0  9997", "line2": "2 39419  97.4468 350.5607 0009744 267.4495  92.5618 15.08489554660353"}}, "geometry": {"type": "Point", "coordinates": [-8.943576636206231, -2.3166395063516045]}}, {"type": "Feature", "properties": {"norad_id": 39574, "name": "GPM-CORE", "group": "resource", "lat": -20.26036076518005, "lon": -4.398433581468852, "alt_km": 432.54456157526783, "timestamp": "2025-12-26T18:39:31.929319+00:00", "meta": {"OBJECT_NAME": "GPM-CORE", "OBJECT_ID": "2014-009C", "EPOCH": "2025-12-26T14:40:39.011232", "MEAN_MOTION": 15.44684672, "ECCENTRICITY": 0.00090272, "INCLINATION": 64.9729, "RA_OF_ASC_NODE": 166.226, "ARG_OF_PERICENTER": 251.5554, "MEAN_ANOMALY": 108.4606, "EPHEMERIS_TYPE": 0, "CLASSIFICATION_TYPE": "U", "NORAD_CAT_ID": 39574, "ELEMENT_SET_NO": 999, "REV_AT_EPOCH": 67115, "BSTAR": 0.00020093828, "MEAN_MOTION_DOT": 9.194e-05, "MEAN_MOTION_DDOT": 0}, "tle": {"line1": "1 39574U 14009C   25360.61156263  .00009194  00000+0  20094-3 0  9998", "line2": "2 39574  64.9729 166.2260 0009027 251.5554 108.4606 15.44684672671157"}}, "geometry": {"type": "Point", "coordinates": [-4.398433581468852, -20.26036076518005]}}]}